[{"OBJECT_NAME":"HERMES-3","OBJECT_ID":"2025-052BR","EPOCH":"2026-03-09T22:30:01.073952","MEAN_MOTION":15.30039786,"ECCENTRICITY":0.00079928,"INCLINATION":97.3987,"RA_OF_ASC_NODE":324.6131,"ARG_OF_PERICENTER":112.9583,"MEAN_ANOMALY":247.2502,"EPHEMERIS_TYPE":0,"CLASSIFICATION_TYPE":"U","NORAD_CAT_ID":63835,"ELEMENT_SET_NO":999,"REV_AT_EPOCH":5486,"BSTAR":0.0006995793,"MEAN_MOTION_DOT":0.00020316,"MEAN_MOTION_DDOT":0},{"OBJECT_NAME":"STARLINK-35562","OBJECT_ID":"2025-235F","EPOCH":"2026-03-09T19:17:49.960608","MEAN_MOTION":15.3018588,"ECCENTRICITY":0.00011018,"INCLINATION":53.1595,"RA_OF_ASC_NODE":245.1175,"ARG_OF_PERICENTER":87.9056,"MEAN_ANOMALY":272.2071,"EPHEMERIS_TYPE":0,"CLASSIFICATION_TYPE":"U","NORAD_CAT_ID":66063,"ELEMENT_SET_NO":999,"REV_AT_EPOCH":2293,"BSTAR":0.00093159789,"MEAN_MOTION_DOT":0.00027321,"MEAN_MOTION_DDOT":0}]
