HERMES-3                
1 63835U 25052BR  26068.93751242  .00020316  00000+0  69958-3 0  9995
2 63835  97.3987 324.6131 0007993 112.9583 247.2502 15.30039785 54863
STARLINK-35562          
1 66063U 25235F   26068.80405047  .00027321  00000+0  93160-3 0  9994
2 66063  53.1595 245.1175 0001101  87.9056 272.2071 15.30185880 22930
